{"epoch":1784799577,"count":18318,"objects":[{"id":"38867","name":"INTELSAT 23","type":"PAYLOAD","l1":"1 38867U 12057A   26203.91531683 -.00000281  00000-0  00000-0 0  9998","l2":"2 38867   0.0247 295.6919 0000257 248.1772  33.2865  1.00269443 50318"},{"id":"39360","name":"SIRIUS FM-6","type":"PAYLOAD","l1":"1 39360U 13058A   26203.73376319 -.00000011  00000-0  00000-0 0  9993","l2":"2 39360   0.0082  24.8608 0001351 154.4914 268.9071  1.00270112 46433"},{"id":"40271","name":"INTELSAT 30","type":"PAYLOAD","l1":"1 40271U 14062A   26203.80925209 -.00000147  00000-0  00000-0 0  9998","l2":"2 40271   0.0176  56.6576 0001608 343.5548  96.6149  1.00270580  7153"},{"id":"40333","name":"DIRECTV 14","type":"PAYLOAD","l1":"1 40333U 14078B   26203.45208742 -.00000122  00000-0  00000-0 0  9994","l2":"2 40333   0.0107  49.5652 0000658 348.8605 325.2826  1.00273271 42396"},{"id":"40663","name":"DIRECTV 15","type":"PAYLOAD","l1":"1 40663U 15026A   26203.66525769 -.00000099  00000-0  00000-0 0  9991","l2":"2 40663   0.0219  79.6045 0000676 297.5354  59.8789  1.00275065 40813"},{"id":"40664","name":"SKY MEXICO-1","type":"PAYLOAD","l1":"1 40664U 15026B   26203.81254545 -.00000230  00000-0  00000-0 0  9997","l2":"2 40664   0.0144 318.7995 0002735 175.9004  19.5625  1.00270516 40819"},{"id":"40874","name":"INTELSAT 34","type":"PAYLOAD","l1":"1 40874U 15039A   26203.88846091 -.00000281  00000-0  00000-0 0  9990","l2":"2 40874   0.0087   5.7879 0000606  35.3203 163.8716  1.00270606 39998"},{"id":"41581","name":"INTELSAT 31","type":"PAYLOAD","l1":"1 41581U 16035A   26203.80925209 -.00000147  00000-0  00000-0 0  9995","l2":"2 41581   0.0087 302.1030 0000893  11.2762 183.4480  1.00270984 37047"},{"id":"41747","name":"INTELSAT 36","type":"PAYLOAD","l1":"1 41747U 16053A   26203.91305693 -.00000020  00000-0  00000-0 0  9990","l2":"2 41747   0.0112  36.7806 0002408 314.9378 346.1265  1.00272243 36319"},{"id":"41945","name":"INTELSAT 32E","type":"PAYLOAD","l1":"1 41945U 17007B   26203.89088758 -.00000265  00000-0  00000-0 0  9998","l2":"2 41945   0.0143  40.4644 0000509  13.6039 164.0859  1.00269762 34587"},{"id":"42818","name":"INTELSAT 35E","type":"PAYLOAD","l1":"1 42818U 17041A   26203.89262093 -.00000234  00000-0  00000-0 0  9998","l2":"2 42818   0.0188  60.7340 0002123  57.7262 109.0163  1.00271634 33177"},{"id":"42950","name":"INTELSAT 37E","type":"PAYLOAD","l1":"1 42950U 17059A   26203.82462602 -.00000136  00000-0  00000-0 0  9996","l2":"2 42950   0.0148  74.5801 0002927  50.5803  94.2714  1.00272530 32429"},{"id":"43632","name":"AZERSPACE 2/INTELSAT 38","type":"PAYLOAD","l1":"1 43632U 18074A   26203.90837691  .00000000  00000-0  00000-0 0  9994","l2":"2 43632   0.0248  56.6523 0001393  56.6906 199.4424  1.00270237 28802"},{"id":"43633","name":"HORIZONS 3E","type":"PAYLOAD","l1":"1 43633U 18074B   26203.86165730 -.00000026  00000-0  00000-0 0  9997","l2":"2 43633   0.0323 238.8554 0000409  76.6575 104.2718  1.00272442 28693"},{"id":"44333","name":"AT&T T-16","type":"PAYLOAD","l1":"1 44333U 19034A   26203.66560435 -.00000111  00000-0  00000-0 0  9996","l2":"2 44333   0.0154  77.2056 0000861 292.3533  69.5986  1.00269612 25982"},{"id":"44476","name":"INTELSAT 39","type":"PAYLOAD","l1":"1 44476U 19049B   26203.93300017  .00000000  00000-0  00000-0 0  9994","l2":"2 44476   0.0226  51.1445 0000897 315.2336 332.1241  1.00270489 25480"},{"id":"46114","name":"GALAXY 30","type":"PAYLOAD","l1":"1 46114U 20056C   26203.73794698  .00000041  00000-0  00000-0 0  9990","l2":"2 46114   0.0146  67.1236 0002244  50.6582 323.3470  1.00271378 21646"},{"id":"54026","name":"GALAXY 33","type":"PAYLOAD","l1":"1 54026U 22128A   26203.73055652  .00000083  00000-0  00000-0 0  9999","l2":"2 54026   0.0115   1.1830 0002004 111.6797 317.6071  1.00270773 14093"},{"id":"54027","name":"GALAXY 34","type":"PAYLOAD","l1":"1 54027U 22128B   26203.66005766  .00000062  00000-0  00000-0 0  9990","l2":"2 54027   0.0093  44.2129 0001827  79.3410 285.4741  1.00275714 14267"},{"id":"54243","name":"GALAXY 31","type":"PAYLOAD","l1":"1 54243U 22153A   26203.66161767  .00000000  00000-0  00000-0 0  9994","l2":"2 54243   0.0150  65.9990 0001431  59.0264 292.5687  1.00272425  7480"},{"id":"54244","name":"GALAXY 32","type":"PAYLOAD","l1":"1 54244U 22153B   26203.59629037 -.00000171  00000-0  00000-0 0  9996","l2":"2 54244   0.0072  38.7271 0001501  18.3215   6.9584  1.00272075 13498"},{"id":"54741","name":"GALAXY 35","type":"PAYLOAD","l1":"1 54741U 22170A   26203.80977211 -.00000158  00000-0  00000-0 0  9996","l2":"2 54741   0.0016 347.8181 0002099 131.7232  19.4166  1.00271596 13250"},{"id":"54742","name":"GALAXY 36","type":"PAYLOAD","l1":"1 54742U 22170B   26203.81046544 -.00000181  00000-0  00000-0 0  9990","l2":"2 54742   0.0218 125.7276 0002758 335.2189  42.3700  1.00272133 13131"},{"id":"57493","name":"GALAXY 37","type":"PAYLOAD","l1":"1 57493U 23112A   26203.74905953  .00000052  00000-0  00000-0 0  9999","l2":"2 57493   0.0162  63.2616 0002135  55.6065 324.2848  1.00273320 10898"}]}